IRIDIUM 112             
1 41925U 17003J   23326.51443211  .00000476  00000+0  16307-3 0  9995
2 41925  86.3942 120.2105 0001909  88.1907 271.9507 14.34217911358873
IRIDIUM 111             
1 41926U 17003K   23326.50173886  .00000426  00000+0  14519-3 0  9991
2 41926  86.3945 120.2657 0001999  98.9547 261.1875 14.34219309358857
IRIDIUM 113             
1 42803U 17039A   23325.50494298  .00000356  00000+0  12006-3 0  9998
2 42803  86.3984 354.4347 0001988  95.1337 265.0086 14.34221301336641
IRIDIUM 123             
1 42804U 17039B   23326.59295236  .00000415  00000+0  14107-3 0  9990
2 42804  86.4002  25.4674 0001968  96.0977 264.0443 14.34217274335560
IRIDIUM 120             
1 42805U 17039C   23325.49859723  .00000343  00000+0  11539-3 0  9992
2 42805  86.3974 354.3417 0002129  93.8829 266.2610 14.34220971336635
IRIDIUM 115             
1 42806U 17039D   23326.55763640  .00000574  00000+0  16465-3 0  9992
2 42806  86.4510 353.8927 0001966 102.9275 257.2146 14.43286527339027
IRIDIUM 118             
1 42807U 17039E   23325.22928329  .00000263  00000+0  86721-4 0  9991
2 42807  86.4002  26.0391 0002160  94.9842 265.1600 14.34221856335365
IRIDIUM 117             
1 42808U 17039F   23326.57392556  .00000407  00000+0  13841-3 0  9990
2 42808  86.4001  25.4436 0002175  98.5433 261.6009 14.34221086335583
